{"type": "FeatureCollection", "note": "Regions with a recorded escape or contamination incident, from the hand-compiled record. 25 incidents only - the GM Contamination Register stopped in 2013 and nothing replaced it, so absence here means nothing was recorded, not that nothing happened.", "features": [{"type": "Feature", "properties": {"name": "Oregon", "iso": "USA", "count": 1}, "geometry": {"type": "Polygon", "coordinates": [[[-117.02, 41.99], [-124.21, 42.0], [-124.35, 42.1], [-124.44, 42.43], [-124.4, 42.62], [-124.56, 42.83], [-124.16, 43.86], [-124.08, 44.81], [-123.96, 45.29], [-123.98, 45.49], [-123.86, 45.5], [-123.95, 45.57], [-124.0, 45.94], [-123.92, 46.01], [-123.98, 46.2], [-123.79, 46.11], [-123.82, 46.19], [-123.52, 46.24], [-123.36, 46.14], [-123.05, 46.16], [-122.9, 46.08], [-122.81, 45.94], [-122.76, 45.65], [-122.3, 45.54], [-121.81, 45.7], [-121.32, 45.7], [-121.17, 45.6], [-120.62, 45.74], [-120.44, 45.69], [-120.21, 45.72], [-119.59, 45.91], [-119.14, 45.93], [-118.98, 46.0], [-116.92, 46.0], [-116.77, 45.82], [-116.53, 45.71], [-116.48, 45.57], [-116.85, 45.02], [-116.87, 44.87], [-117.04, 44.75], [-117.24, 44.39], [-117.17, 44.25], [-116.99, 44.25], [-116.9, 44.15], [-116.98, 44.07], [-116.93, 44.01], [-117.04, 43.8], [-117.02, 41.99]]]}}, {"type": "Feature", "properties": {"name": "Minas Gerais", "iso": "BRA", "count": 1}, "geometry": {"type": "Polygon", "coordinates": [[[-44.21, -14.24], [-43.78, -14.34], [-43.88, -14.65], [-43.53, -14.81], [-43.18, -14.65], [-42.09, -15.19], [-41.8, -15.1], [-41.36, -15.5], [-41.33, -15.74], [-40.71, -15.67], [-40.56, -15.8], [-40.23, -15.8], [-39.86, -16.11], [-40.16, -16.58], [-40.28, -16.57], [-40.28, -16.9], [-40.48, -16.88], [-40.57, -17.06], [-40.62, -17.41], [-40.22, -17.73], [-40.22, -17.98], [-40.53, -17.89], [-40.7, -18.02], [-40.88, -17.97], [-40.77, -18.16], [-41.06, -18.17], [-41.16, -18.31], [-41.18, -18.44], [-41.02, -18.46], [-41.05, -18.63], [-40.92, -18.81], [-41.24, -18.85], [-41.02, -18.97], [-40.94, -19.46], [-41.17, -19.67], [-41.38, -20.19], [-41.76, -20.21], [-41.85, -20.33], [-41.81, -20.64], [-41.98, -20.94], [-42.15, -20.97], [-42.08, -21.04], [-42.37, -21.62], [-42.27, -21.71], [-43.07, -22.09], [-43.25, -22.01], [-43.77, -22.06], [-45.39, -22.65], [-45.72, -22.58], [-45.79, -22.86], [-46.34, -22.9], [-46.33, -22.76], [-46.48, -22.7], [-46.41, -22.54], [-46.72, -22.31], [-46.6, -22.13], [-46.72, -22.08], [-46.61, -22.01], [-46.69, -21.84], [-46.51, -21.47], [-46.67, -21.36], [-47.01, -21.42], [-47.24, -20.88], [-47.1, -20.64], [-47.29, -20.45], [-47.26, -20.17], [-47.47, -19.96], [-47.64, -20.05], [-47.86, -19.99], [-47.89, -20.12], [-47.98, -20.03], [-48.11, -20.14], [-48.24, -20.03], [-48.25, -20.14], [-48.82, -20.16], [-48.9, -20.44], [-48.99, -20.16], [-49.22, -20.3], [-49.31, -20.1], [-49.25, -19.97], [-49.55, -19.91], [-49.89, -19.94], [-50.47, -19.78], [-51.0, -20.08], [-50.96, -19.48], [-50.83, -19.49], [-50.82, -19.29], [-50.54, -19.1], [-50.31, -18.7], [-49.78, -18.64], [-49.54, -18.49], [-49.38, -18.64], [-49.21, -18.41], [-48.94, -18.31], [-48.26, -18.33], [-47.95, -18.5], [-47.28, -18.06], [-47.37, -17.83], [-47.27, -17.61], [-47.5, -17.52], [-47.54, -17.39], [-47.13, -16.98], [-47.25, -16.67], [-47.46, -16.5], [-47.3, -16.02], [-46.81, -15.89], [-46.95, -15.55], [-46.84, -15.32], [-46.94, -15.23], [-46.92, -15.05], [-46.5, -15.05], [-46.57, -14.79], [-46.47, -14.7], [-46.29, -14.93], [-46.0, -14.9], [-45.98, -15.04], [-46.12, -15.19], [-46.05, -15.26], [-45.08, -14.75], [-44.57, -14.34], [-44.21, -14.24]]]}}, {"type": "Feature", "properties": {"name": "Saskatchewan", "iso": "CAN", "count": 1}, "geometry": {"type": "Polygon", "coordinates": [[[-102.0, 60.0], [-102.0, 55.83], [-101.37, 49.0], [-110.0, 49.0], [-110.0, 60.0], [-102.0, 60.0]]]}}, {"type": "Feature", "properties": {"name": "North Dakota", "iso": "USA", "count": 1}, "geometry": {"type": "Polygon", "coordinates": [[[-96.57, 45.93], [-104.05, 45.94], [-104.06, 49.0], [-97.23, 49.0], [-97.1, 48.67], [-97.17, 48.56], [-97.14, 48.15], [-96.85, 47.6], [-96.84, 47.01], [-96.76, 46.92], [-96.79, 46.63], [-96.71, 46.43], [-96.6, 46.34], [-96.57, 45.93]]]}}, {"type": "Feature", "properties": {"name": "Bahia", "iso": "BRA", "count": 1}, "geometry": {"type": "Polygon", "coordinates": [[[-39.29, -8.56], [-39.23, -8.71], [-38.8, -8.79], [-38.67, -8.97], [-38.55, -8.82], [-38.48, -9.0], [-38.3, -9.02], [-38.2, -9.42], [-38.0, -9.5], [-38.0, -9.92], [-37.83, -10.0], [-37.74, -10.33], [-37.86, -10.43], [-37.81, -10.69], [-38.21, -10.71], [-38.23, -10.92], [-37.81, -11.51], [-37.52, -11.55], [-37.34, -11.44], [-38.05, -12.63], [-38.35, -12.95], [-38.49, -13.01], [-38.62, -12.93], [-38.96, -13.28], [-38.89, -13.64], [-39.0, -13.74], [-38.93, -13.94], [-39.07, -14.71], [-38.86, -15.86], [-39.21, -17.17], [-39.14, -17.69], [-39.57, -18.09], [-39.67, -18.35], [-40.22, -17.98], [-40.22, -17.73], [-40.62, -17.41], [-40.49, -16.88], [-40.28, -16.9], [-40.28, -16.57], [-40.16, -16.58], [-39.86, -16.11], [-40.23, -15.8], [-40.56, -15.8], [-40.82, -15.65], [-41.33, -15.74], [-41.36, -15.5], [-41.8, -15.1], [-42.09, -15.19], [-43.18, -14.65], [-43.53, -14.81], [-43.88, -14.65], [-43.78, -14.34], [-44.21, -14.23], [-44.57, -14.34], [-45.08, -14.75], [-46.08, -15.26], [-45.97, -14.97], [-46.05, -14.83], [-46.02, -14.42], [-45.91, -14.35], [-46.27, -14.1], [-46.26, -13.69], [-46.16, -13.59], [-46.24, -13.43], [-46.04, -13.28], [-46.32, -13.3], [-46.32, -13.1], [-46.11, -12.92], [-46.3, -12.95], [-46.28, -12.58], [-46.15, -12.48], [-46.35, -12.34], [-46.4, -12.04], [-46.17, -11.9], [-46.37, -11.87], [-46.31, -11.63], [-46.08, -11.64], [-46.48, -11.52], [-46.62, -11.29], [-46.28, -10.91], [-46.21, -10.65], [-45.83, -10.44], [-45.72, -10.15], [-45.6, -10.11], [-45.4, -10.45], [-45.44, -10.62], [-45.25, -10.82], [-44.93, -10.93], [-44.58, -10.63], [-44.34, -10.55], [-44.13, -10.64], [-43.66, -10.0], [-43.65, -9.84], [-43.85, -9.55], [-43.49, -9.26], [-43.28, -9.42], [-42.97, -9.41], [-42.76, -9.62], [-42.24, -9.29], [-41.84, -9.24], [-41.38, -8.71], [-41.11, -8.7], [-40.67, -9.16], [-40.78, -9.45], [-40.62, -9.48], [-40.33, -9.35], [-40.25, -9.06], [-39.96, -9.05], [-39.89, -8.83], [-39.67, -8.79], [-39.69, -8.66], [-39.29, -8.56]], [[-39.58, -18.08], [-39.57, -18.09], [-39.57, -18.08], [-39.58, -18.08]]]}}, {"type": "Feature", "properties": {"name": "Khon Kaen", "iso": "THA", "count": 1}, "geometry": {"type": "Polygon", "coordinates": [[[101.79, 16.77], [102.26, 16.89], [102.41, 16.79], [102.61, 16.77], [102.72, 17.07], [102.83, 16.98], [102.84, 16.87], [102.96, 16.84], [103.11, 16.91], [103.13, 16.83], [103.18, 16.85], [103.16, 16.62], [102.94, 16.45], [102.85, 16.27], [102.95, 15.79], [102.87, 15.64], [102.69, 15.72], [102.37, 15.74], [102.33, 15.85], [102.39, 15.98], [102.27, 16.07], [102.45, 16.41], [102.08, 16.5], [101.96, 16.63], [101.75, 16.67], [101.79, 16.77]]]}}, {"type": "Feature", "properties": {"name": "Gujarat", "iso": "IND", "count": 1}, "geometry": {"type": "MultiPolygon", "coordinates": [[[[68.11, 23.6], [68.29, 23.94], [68.75, 23.97], [68.78, 24.33], [68.86, 24.24], [68.93, 24.33], [68.99, 24.26], [69.6, 24.28], [69.72, 24.17], [70.03, 24.17], [70.12, 24.31], [70.57, 24.44], [70.58, 24.28], [70.78, 24.24], [71.12, 24.41], [71.01, 24.46], [70.98, 24.56], [71.1, 24.69], [71.3, 24.61], [71.8, 24.67], [71.86, 24.6], [71.88, 24.68], [71.94, 24.63], [72.05, 24.71], [72.17, 24.61], [72.35, 24.62], [72.25, 24.58], [72.44, 24.5], [72.46, 24.41], [72.54, 24.51], [72.7, 24.46], [72.73, 24.36], [72.92, 24.33], [73.09, 24.49], [73.08, 24.39], [73.23, 24.36], [73.08, 24.19], [73.25, 24.01], [73.37, 24.13], [73.42, 23.93], [73.36, 23.79], [73.51, 23.7], [73.51, 23.62], [73.66, 23.62], [73.63, 23.45], [73.83, 23.45], [73.89, 23.34], [73.96, 23.38], [74.1, 23.3], [74.13, 23.18], [74.25, 23.19], [74.36, 22.93], [74.46, 22.91], [74.38, 22.64], [74.27, 22.64], [74.15, 22.52], [74.04, 22.54], [74.11, 22.43], [74.19, 22.48], [74.29, 22.39], [74.19, 22.32], [74.07, 22.36], [74.18, 22.09], [74.1, 22.02], [74.15, 21.95], [73.81, 21.82], [73.9, 21.67], [73.79, 21.63], [73.86, 21.5], [74.31, 21.57], [74.33, 21.5], [74.07, 21.48], [73.95, 21.4], [73.95, 21.3], [73.83, 21.27], [73.82, 21.17], [73.59, 21.17], [73.86, 21.0], [73.95, 20.74], [73.75, 20.57], [73.45, 20.7], [73.4, 20.65], [73.5, 20.54], [73.39, 20.39], [73.43, 20.21], [73.31, 20.21], [73.26, 20.12], [73.18, 20.21], [73.07, 20.16], [73.18, 20.29], [73.11, 20.36], [72.8, 20.13], [72.54, 20.15], [72.47, 20.81], [72.38, 20.92], [71.66, 20.64], [70.74, 20.45], [70.01, 20.78], [69.04, 21.72], [68.68, 22.28], [68.98, 22.74], [68.37, 23.1], [68.11, 23.6]], [[72.97, 20.36], [72.96, 20.31], [73.0, 20.33], [72.97, 20.36]], [[72.82, 20.37], [72.89, 20.37], [72.89, 20.46], [72.83, 20.45], [72.82, 20.37]], [[70.87, 20.71], [71.0, 20.7], [71.01, 20.74], [70.92, 20.74], [70.87, 20.71]]]]}}, {"type": "Feature", "properties": {"name": "New South Wales", "iso": "AUS", "count": 1}, "geometry": {"type": "MultiPolygon", "coordinates": [[[[147.32, -36.06], [146.5, -35.96], [146.37, -36.05], [145.81, -35.99], [145.53, -35.8], [144.99, -35.85], [144.98, -36.07], [144.73, -36.12], [143.97, -35.5], [143.62, -35.39], [143.57, -35.21], [143.39, -35.19], [143.35, -34.79], [142.89, -34.68], [142.79, -34.55], [142.64, -34.78], [142.52, -34.76], [142.37, -34.53], [142.4, -34.34], [142.04, -34.1], [141.51, -34.22], [141.0, -34.04], [141.0, -29.0], [148.96, -29.0], [149.5, -28.58], [150.29, -28.54], [150.44, -28.67], [151.01, -28.74], [151.39, -29.18], [151.7, -28.87], [152.01, -28.91], [152.08, -28.71], [151.95, -28.52], [152.46, -28.26], [153.11, -28.36], [153.18, -28.25], [153.36, -28.25], [153.48, -28.16], [153.55, -28.17], [153.49, -28.28], [153.49, -28.28], [153.51, -28.28], [153.56, -28.24], [153.56, -28.18], [153.61, -28.85], [153.36, -29.42], [153.36, -29.38], [153.27, -29.37], [153.28, -29.43], [153.33, -29.41], [153.29, -29.45], [153.37, -29.48], [152.98, -30.68], [153.01, -30.66], [152.99, -30.7], [153.01, -30.75], [152.99, -30.81], [153.0, -30.87], [153.09, -30.93], [152.94, -31.48], [152.54, -32.04], [152.54, -32.45], [152.33, -32.53], [152.2, -32.7], [151.97, -32.66], [151.94, -32.74], [152.19, -32.74], [151.79, -32.92], [151.79, -32.88], [151.77, -32.9], [151.77, -32.89], [151.73, -32.88], [151.66, -33.09], [151.64, -32.98], [151.61, -32.97], [151.51, -33.14], [151.63, -33.07], [151.64, -33.18], [151.5, -33.35], [151.56, -33.24], [151.44, -33.31], [151.5, -33.36], [151.42, -33.53], [151.26, -33.57], [151.24, -33.45], [151.2, -33.54], [151.17, -33.43], [151.14, -33.47], [151.1, -33.48], [151.08, -33.45], [151.07, -33.46], [151.12, -33.6], [151.23, -33.54], [151.15, -33.66], [151.28, -33.57], [151.27, -33.66], [151.34, -33.63], [151.3, -33.82], [151.2, -33.77], [151.25, -33.85], [151.14, -33.8], [151.05, -33.83], [151.19, -33.88], [151.27, -33.87], [151.28, -33.83], [151.26, -33.97], [151.12, -33.99], [151.23, -34.03], [151.06, -34.07], [151.17, -34.09], [150.81, -34.51], [150.9, -34.6], [150.76, -34.9], [150.75, -34.86], [150.72, -34.88], [150.67, -34.86], [150.6, -34.87], [150.7, -34.94], [150.77, -34.9], [150.84, -35.06], [150.73, -35.0], [150.71, -35.12], [150.45, -35.23], [150.49, -35.37], [150.28, -35.72], [150.13, -35.69], [150.16, -35.67], [150.14, -35.62], [150.16, -35.62], [150.19, -35.56], [150.14, -35.62], [150.15, -35.67], [150.1, -35.7], [150.23, -35.84], [150.06, -35.9], [150.16, -35.91], [150.06, -36.05], [150.15, -36.27], [149.88, -36.89], [149.88, -37.13], [150.05, -37.26], [149.94, -37.28], [149.98, -37.5], [148.11, -36.8], [148.22, -36.6], [147.91, -36.0], [147.4, -35.95], [147.32, -36.06]], [[151.75, -32.85], [151.78, -32.89], [151.82, -32.83], [151.75, -32.85]], [[151.55, -33.2], [151.58, -33.21], [151.58, -33.2], [151.55, -33.2]], [[151.44, -33.43], [151.45, -33.43], [151.45, -33.42], [151.44, -33.43]], [[151.42, -33.46], [151.43, -33.47], [151.43, -33.45], [151.42, -33.46]], [[151.33, -33.5], [151.33, -33.48], [151.37, -33.44], [151.32, -33.43], [151.33, -33.5]], [[151.31, -33.49], [151.31, -33.47], [151.29, -33.5], [151.31, -33.49]], [[151.04, -33.95], [151.04, -34.03], [151.11, -34.0], [151.04, -33.95]], [[149.12, -35.13], [148.81, -35.31], [148.76, -35.5], [148.79, -35.7], [149.05, -35.92], [149.14, -35.43], [149.4, -35.32], [149.12, -35.13]]]]}}]}