{"type": "FeatureCollection", "note": "Regions holding at least one mapped organisation. Shows where entries sit, not where activity is - most sources publish no location, so a point lands on a country or city centroid and this reflects that.", "features": [{"type": "Feature", "properties": {"name": "Zug", "iso": "CHE", "count": 2}, "geometry": {"type": "Polygon", "coordinates": [[[8.59, 47.09], [8.41, 47.14], [8.41, 47.25], [8.46, 47.21], [8.57, 47.22], [8.7, 47.16], [8.59, 47.09]]]}}, {"type": "Feature", "properties": {"name": "Tokyo", "iso": "JPN", "count": 2}, "geometry": {"type": "MultiPolygon", "coordinates": [[[[153.98, 24.28], [153.98, 24.3], [153.99, 24.29], [153.98, 24.28]]], [[[153.95, 24.32], [153.95, 24.29], [153.94, 24.31], [153.95, 24.32]]], [[[142.19, 27.09], [142.23, 27.09], [142.23, 27.05], [142.2, 27.05], [142.19, 27.09]]], [[[142.2, 27.17], [142.18, 27.16], [142.19, 27.19], [142.2, 27.17]]], [[[142.19, 27.62], [142.18, 27.61], [142.18, 27.62], [142.19, 27.62]]], [[[142.19, 26.65], [142.16, 26.63], [142.11, 26.72], [142.17, 26.7], [142.19, 26.65]]], [[[142.11, 27.73], [142.11, 27.73], [142.11, 27.72], [142.11, 27.73]]], [[[142.09, 27.73], [142.08, 27.73], [142.08, 27.73], [142.09, 27.73]]], [[[141.46, 24.21], [141.47, 24.23], [141.47, 24.22], [141.46, 24.21]]], [[[141.3, 24.79], [141.37, 24.78], [141.29, 24.73], [141.3, 24.79]]], [[[141.3, 25.45], [141.27, 25.43], [141.27, 25.45], [141.3, 25.45]]], [[[140.88, 27.23], [140.87, 27.23], [140.87, 27.24], [140.88, 27.23]]], [[[140.31, 30.47], [140.32, 30.49], [140.33, 30.49], [140.31, 30.47]]], [[[140.04, 31.44], [140.04, 31.45], [140.05, 31.44], [140.04, 31.44]]], [[[140.04, 31.44], [140.04, 31.45], [140.04, 31.44], [140.04, 31.44]]], [[[139.86, 35.63], [139.81, 35.64], [139.79, 35.6], [139.77, 35.65], [139.79, 35.51], [139.54, 35.61], [139.45, 35.6], [139.49, 35.56], [139.46, 35.49], [139.4, 35.56], [139.04, 35.7], [138.92, 35.84], [139.01, 35.88], [139.41, 35.75], [139.86, 35.78], [139.86, 35.63]]], [[[139.74, 33.13], [139.88, 33.09], [139.84, 33.04], [139.74, 33.13]]], [[[139.76, 32.45], [139.76, 32.47], [139.77, 32.44], [139.76, 32.45]]], [[[139.59, 33.9], [139.62, 33.86], [139.58, 33.86], [139.59, 33.9]]], [[[139.49, 34.06], [139.52, 34.11], [139.58, 34.09], [139.53, 34.04], [139.49, 34.06]]], [[[139.36, 34.8], [139.45, 34.76], [139.45, 34.68], [139.35, 34.72], [139.36, 34.8]]], [[[139.25, 34.34], [139.3, 34.42], [139.27, 34.32], [139.25, 34.34]]], [[[139.3, 33.65], [139.3, 33.65], [139.3, 33.65], [139.3, 33.65]]]]}}, {"type": "Feature", "properties": {"name": "Seoul", "iso": "KOR", "count": 3}, "geometry": {"type": "Polygon", "coordinates": [[[127.054, 37.683], [127.107, 37.657], [127.116, 37.551], [127.195, 37.543], [127.145, 37.458], [126.921, 37.429], [126.843, 37.478], [126.794, 37.552], [126.809, 37.577], [126.893, 37.567], [127.054, 37.683]]]}}, {"type": "Feature", "properties": {"name": "São Paulo", "iso": "BRA", "count": 2}, "geometry": {"type": "MultiPolygon", "coordinates": [[[[-45.84, -23.76], [-46.13, -23.86], [-46.12, -23.86], [-46.14, -23.89], [-46.18, -23.92], [-46.18, -23.99], [-46.38, -23.97], [-46.94, -24.28], [-47.84, -24.97], [-47.91, -25.16], [-48.1, -25.31], [-48.02, -25.23], [-48.19, -25.2], [-48.25, -24.98], [-48.33, -25.07], [-48.41, -24.98], [-48.58, -25.05], [-48.5, -24.74], [-48.58, -24.67], [-49.3, -24.67], [-49.2, -24.34], [-49.61, -23.85], [-49.57, -23.43], [-49.68, -23.16], [-49.99, -22.9], [-50.74, -22.96], [-50.89, -22.8], [-51.26, -22.67], [-51.72, -22.67], [-52.11, -22.52], [-52.22, -22.67], [-52.59, -22.57], [-53.11, -22.6], [-52.41, -22.14], [-52.08, -21.71], [-52.08, -21.51], [-51.87, -21.35], [-51.88, -21.14], [-51.62, -20.93], [-51.59, -20.63], [-51.34, -20.36], [-51.07, -20.25], [-50.97, -20.03], [-50.58, -19.82], [-49.26, -19.96], [-49.24, -20.29], [-48.99, -20.16], [-48.9, -20.44], [-48.82, -20.16], [-48.25, -20.14], [-48.24, -20.03], [-48.11, -20.14], [-47.98, -20.03], [-47.89, -20.12], [-47.86, -19.99], [-47.64, -20.05], [-47.47, -19.96], [-47.23, -20.22], [-47.29, -20.45], [-47.1, -20.66], [-47.24, -20.88], [-47.01, -21.42], [-46.67, -21.36], [-46.51, -21.47], [-46.69, -21.84], [-46.61, -22.01], [-46.72, -22.08], [-46.6, -22.13], [-46.72, -22.31], [-46.41, -22.54], [-46.48, -22.7], [-46.33, -22.76], [-46.36, -22.9], [-45.79, -22.86], [-45.72, -22.58], [-45.4, -22.65], [-44.81, -22.4], [-44.63, -22.61], [-44.16, -22.67], [-44.27, -22.83], [-44.79, -22.98], [-44.89, -23.22], [-44.72, -23.37], [-44.91, -23.33], [-45.08, -23.52], [-45.41, -23.62], [-45.4, -23.82], [-45.84, -23.76]], [[-46.14, -23.86], [-46.13, -23.86], [-46.14, -23.86], [-46.14, -23.86]]]]}}, {"type": "Feature", "properties": {"name": "Brussels", "iso": "BEL", "count": 5}, "geometry": {"type": "Polygon", "coordinates": [[[4.48, 50.795], [4.377, 50.765], [4.246, 50.822], [4.298, 50.891], [4.403, 50.915], [4.48, 50.795]]]}}, {"type": "Feature", "properties": {"name": "Beijing", "iso": "CHN", "count": 7}, "geometry": {"type": "Polygon", "coordinates": [[[117.36, 40.26], [117.3, 40.1], [116.76, 40.02], [116.78, 39.89], [116.93, 39.8], [116.88, 39.69], [116.44, 39.53], [116.43, 39.44], [116.2, 39.58], [115.76, 39.51], [115.46, 39.64], [115.44, 39.77], [115.57, 39.8], [115.43, 39.99], [115.94, 40.27], [115.73, 40.56], [116.04, 40.6], [116.23, 40.76], [116.47, 40.77], [116.35, 40.93], [116.45, 40.9], [116.62, 41.05], [116.96, 40.72], [117.49, 40.66], [117.18, 40.51], [117.36, 40.26]]]}}, {"type": "Feature", "properties": {"name": "Shanghai", "iso": "CHN", "count": 3}, "geometry": {"type": "MultiPolygon", "coordinates": [[[[121.79, 31.37], [121.88, 31.34], [121.83, 31.29], [121.79, 31.37]]], [[[121.34, 31.49], [121.73, 31.28], [121.96, 30.87], [121.27, 30.69], [120.98, 30.83], [120.87, 31.14], [121.06, 31.15], [121.18, 31.45], [121.34, 31.49]]], [[[121.32, 31.83], [121.98, 31.48], [121.57, 31.53], [121.18, 31.78], [121.32, 31.83]]], [[[121.69, 31.42], [121.77, 31.32], [121.58, 31.44], [121.69, 31.42]]]]}}, {"type": "Feature", "properties": {"name": "Hamburg", "iso": "DEU", "count": 1}, "geometry": {"type": "MultiPolygon", "coordinates": [[[[10.19, 53.72], [10.14, 53.68], [10.22, 53.63], [10.15, 53.58], [10.16, 53.53], [10.32, 53.45], [10.24, 53.4], [10.05, 53.46], [9.97, 53.41], [9.9, 53.46], [9.86, 53.43], [9.73, 53.56], [9.76, 53.63], [9.83, 53.59], [9.9, 53.65], [10.07, 53.68], [10.08, 53.72], [10.19, 53.72]]]]}}, {"type": "Feature", "properties": {"name": "Singapore", "iso": "SGP", "count": 3}, "geometry": {"type": "Polygon", "coordinates": [[[103.932, 1.401], [104.003, 1.374], [103.992, 1.355], [103.954, 1.318], [103.888, 1.301], [103.839, 1.266], [103.79, 1.268], [103.776, 1.288], [103.755, 1.297], [103.665, 1.304], [103.648, 1.308], [103.64, 1.322], [103.695, 1.421], [103.718, 1.431], [103.762, 1.431], [103.805, 1.449], [103.857, 1.439], [103.932, 1.401]]]}}, {"type": "Feature", "properties": {"name": "New York", "iso": "USA", "count": 4}, "geometry": {"type": "MultiPolygon", "coordinates": [[[[-72.52, 40.82], [-73.93, 40.56], [-73.76, 40.64], [-74.0, 40.58], [-74.03, 40.64], [-73.9, 40.8], [-73.75, 40.79], [-73.75, 40.84], [-73.6, 40.9], [-72.63, 40.98], [-72.32, 41.15], [-72.6, 40.91], [-72.29, 41.02], [-72.08, 41.0], [-71.87, 41.07], [-72.52, 40.82]]], [[[-79.76, 42.27], [-79.14, 42.57], [-78.86, 42.79], [-78.94, 42.97], [-78.88, 43.02], [-79.06, 43.09], [-79.06, 43.27], [-78.46, 43.37], [-77.75, 43.34], [-77.58, 43.24], [-76.72, 43.32], [-76.45, 43.5], [-76.22, 43.55], [-76.18, 43.63], [-76.24, 43.84], [-76.13, 43.93], [-76.13, 44.01], [-76.36, 44.1], [-75.85, 44.39], [-75.76, 44.52], [-75.33, 44.81], [-74.74, 44.99], [-73.34, 45.01], [-73.38, 44.62], [-73.29, 44.43], [-73.31, 44.26], [-73.44, 44.06], [-73.36, 43.76], [-73.42, 43.63], [-73.39, 43.57], [-73.29, 43.62], [-73.24, 43.51], [-73.26, 42.75], [-73.5, 42.08], [-73.55, 41.29], [-73.48, 41.21], [-73.73, 41.1], [-73.65, 41.0], [-73.8, 40.83], [-73.92, 40.8], [-74.01, 40.7], [-73.9, 41.0], [-74.7, 41.35], [-74.75, 41.43], [-74.97, 41.48], [-75.07, 41.6], [-75.08, 41.81], [-75.25, 41.87], [-75.35, 41.99], [-79.76, 42.0], [-79.76, 42.27]]]]}}, {"type": "Feature", "properties": {"name": "Uppsala", "iso": "SWE", "count": 1}, "geometry": {"type": "MultiPolygon", "coordinates": [[[[17.3766, 60.6239], [17.575, 60.6479], [17.6589, 60.6083], [17.6038, 60.5841], [17.6382, 60.5154], [17.7415, 60.4984], [17.7271, 60.5347], [17.7622, 60.5633], [17.8161, 60.5853], [17.9487, 60.5992], [17.9749, 60.5878], [17.9954, 60.553], [17.9675, 60.5121], [18.0984, 60.4649], [18.1433, 60.4136], [18.2622, 60.3824], [18.207, 60.355], [18.2349, 60.3271], [18.2964, 60.355], [18.428, 60.3488], [18.4478, 60.3414], [18.4478, 60.3135], [18.4745, 60.293], [18.4268, 60.2862], [18.5654, 60.2593], [18.6048, 60.2383], [18.5637, 60.2276], [18.4006, 60.2596], [18.3169, 60.321], [18.3309, 60.2857], [18.4478, 60.2111], [18.3926, 60.2322], [18.4199, 60.1935], [18.5061, 60.1557], [18.5485, 60.1741], [18.5545, 60.1214], [18.461, 60.0429], [18.4939, 60.0108], [18.4269, 59.98], [18.4115, 59.9009], [18.3434, 59.8649], [18.1778, 59.8288], [18.0899, 59.7526], [18.009, 59.7516], [17.7814, 59.6919], [17.6729, 59.7094], [17.5873, 59.6695], [17.5624, 59.6225], [17.5938, 59.5796], [17.5904, 59.5628], [17.5353, 59.507], [17.5289, 59.462], [17.483, 59.4368], [17.4445, 59.3853], [17.3947, 59.4275], [17.2984, 59.4583], [17.2006, 59.5178], [16.9664, 59.5321], [16.9003, 59.669], [16.7875, 59.7984], [16.8524, 59.8339], [16.8589, 59.8844], [17.0072, 59.8651], [17.0504, 59.8391], [17.1947, 59.8975], [17.2077, 59.9675], [17.1656, 59.997], [17.2206, 60.0483], [17.2715, 60.0504], [17.3077, 60.0774], [17.3941, 60.2246], [17.3694, 60.2509], [17.2262, 60.3096], [17.2175, 60.3847], [17.2459, 60.4285], [17.3159, 60.486], [17.3766, 60.6239]]], [[[18.5298, 60.3681], [18.5669, 60.3074], [18.4022, 60.3698], [18.3788, 60.5078], [18.4063, 60.5058], [18.4268, 60.4649], [18.4661, 60.4427], [18.4745, 60.4308], [18.4199, 60.4438], [18.4846, 60.3664], [18.5078, 60.356], [18.5298, 60.3681]]]]}}, {"type": "Feature", "properties": {"name": "Dublin", "iso": "IRL", "count": 2}, "geometry": {"type": "Polygon", "coordinates": [[[-6.1498, 53.3865], [-6.2153, 53.3581], [-6.1805, 53.3173], [-6.2727, 53.3096], [-6.3774, 53.342], [-6.2827, 53.4143], [-6.1569, 53.4193], [-6.1498, 53.3865]]]}}, {"type": "Feature", "properties": {"name": "Incheon", "iso": "KOR", "count": 2}, "geometry": {"type": "MultiPolygon", "coordinates": [[[[126.72, 37.377], [126.615, 37.38], [126.639, 37.414], [126.595, 37.472], [126.644, 37.504], [126.606, 37.497], [126.604, 37.549], [126.701, 37.552], [126.76, 37.507], [126.796, 37.443], [126.72, 37.377]]], [[[126.515, 37.534], [126.583, 37.49], [126.443, 37.421], [126.356, 37.466], [126.515, 37.534]]]]}}, {"type": "Feature", "properties": {"name": "Wellington", "iso": "NZL", "count": 1}, "geometry": {"type": "Polygon", "coordinates": [[[176.348, -40.697], [176.236, -40.914], [176.15, -40.967], [176.068, -41.14], [175.967, -41.247], [175.33, -41.61], [175.222, -41.614], [175.182, -41.524], [175.182, -41.418], [175.035, -41.381], [174.928, -41.444], [174.866, -41.42], [174.89, -41.225], [174.785, -41.249], [174.771, -41.278], [174.832, -41.296], [174.81, -41.334], [174.695, -41.34], [174.609, -41.292], [174.612, -41.237], [174.692, -41.212], [174.83, -41.088], [174.866, -41.104], [174.842, -41.044], [174.935, -40.983], [174.979, -40.875], [175.141, -40.674], [175.262, -40.766], [175.426, -40.745], [175.477, -40.709], [175.639, -40.739], [175.72, -40.697], [175.831, -40.775], [176.087, -40.693], [176.348, -40.697]]]}}, {"type": "Feature", "properties": {"name": "Islamabad", "iso": "PAK", "count": 1}, "geometry": {"type": "Polygon", "coordinates": [[[72.81, 33.66], [73.13, 33.8], [73.32, 33.68], [73.16, 33.49], [73.07, 33.62], [72.83, 33.59], [72.81, 33.66]]]}}, {"type": "Feature", "properties": {"name": "Madrid", "iso": "ESP", "count": 2}, "geometry": {"type": "MultiPolygon", "coordinates": [[[[-3.1, 40.27], [-3.09, 40.07], [-3.5, 40.05], [-3.81, 39.89], [-3.87, 39.93], [-3.63, 40.04], [-3.61, 40.11], [-4.17, 40.28], [-4.3, 40.22], [-4.37, 40.31], [-4.51, 40.2], [-4.57, 40.21], [-4.54, 40.33], [-4.47, 40.32], [-4.42, 40.4], [-4.32, 40.41], [-4.29, 40.63], [-4.17, 40.62], [-4.09, 40.77], [-3.98, 40.79], [-3.9, 40.96], [-3.55, 41.16], [-3.41, 41.01], [-3.5, 40.8], [-3.45, 40.76], [-3.46, 40.69], [-3.32, 40.65], [-3.29, 40.54], [-3.2, 40.51], [-3.14, 40.39], [-3.19, 40.25], [-3.1, 40.27]]]]}}, {"type": "Feature", "properties": {"name": "Berlin", "iso": "DEU", "count": 1}, "geometry": {"type": "Polygon", "coordinates": [[[13.51, 52.59], [13.66, 52.53], [13.61, 52.47], [13.76, 52.44], [13.65, 52.34], [13.46, 52.42], [13.42, 52.38], [13.09, 52.41], [13.17, 52.51], [13.12, 52.52], [13.15, 52.59], [13.22, 52.59], [13.28, 52.65], [13.35, 52.62], [13.48, 52.67], [13.52, 52.64], [13.51, 52.59]]]}}, {"type": "Feature", "properties": {"name": "Putrajaya", "iso": "MYS", "count": 1}, "geometry": {"type": "Polygon", "coordinates": [[[101.71, 2.98], [101.73, 2.93], [101.68, 2.88], [101.67, 2.96], [101.71, 2.98]]]}}, {"type": "Feature", "properties": {"name": "Lima", "iso": "PER", "count": 2}, "geometry": {"type": "Polygon", "coordinates": [[[-76.25, -13.32], [-76.48, -13.04], [-76.52, -12.87], [-76.68, -12.62], [-76.8, -12.51], [-76.68, -12.38], [-76.64, -12.24], [-76.73, -12.1], [-76.68, -12.08], [-76.75, -12.03], [-76.7, -11.95], [-76.72, -11.9], [-76.77, -11.86], [-76.93, -11.96], [-76.95, -11.83], [-76.86, -11.73], [-76.98, -11.73], [-77.08, -11.55], [-77.2, -11.68], [-77.32, -11.49], [-77.65, -11.29], [-77.59, -11.17], [-77.66, -10.95], [-77.89, -10.6], [-77.81, -10.55], [-77.78, -10.37], [-77.68, -10.39], [-77.75, -10.52], [-77.6, -10.58], [-77.59, -10.74], [-77.51, -10.75], [-77.2, -10.52], [-77.11, -10.36], [-76.93, -10.29], [-76.91, -10.34], [-76.84, -10.35], [-76.72, -10.48], [-76.57, -10.83], [-76.57, -10.99], [-76.49, -11.07], [-76.48, -11.31], [-76.35, -11.54], [-76.23, -11.59], [-76.21, -11.75], [-76.01, -12.01], [-75.89, -11.99], [-75.64, -12.13], [-75.65, -12.2], [-75.54, -12.42], [-75.57, -12.61], [-75.47, -12.69], [-75.49, -12.76], [-75.6, -12.87], [-75.63, -12.98], [-75.8, -13.03], [-75.95, -13.0], [-76.25, -13.32]]]}}, {"type": "Feature", "properties": {"name": "Prague", "iso": "CZE", "count": 1}, "geometry": {"type": "Polygon", "coordinates": [[[14.527, 50.169], [14.683, 50.092], [14.641, 50.051], [14.647, 50.0], [14.326, 49.952], [14.213, 50.096], [14.527, 50.169]]]}}, {"type": "Feature", "properties": {"name": "La Paz", "iso": "BOL", "count": 1}, "geometry": {"type": "Polygon", "coordinates": [[[-69.29, -17.98], [-69.36, -17.76], [-69.5, -17.62], [-69.52, -17.37], [-69.67, -17.29], [-69.62, -17.19], [-69.41, -17.06], [-69.18, -16.73], [-69.04, -16.67], [-69.03, -16.45], [-68.83, -16.33], [-68.98, -16.21], [-69.12, -16.23], [-69.18, -16.2], [-69.43, -15.63], [-69.29, -15.35], [-69.15, -15.23], [-69.38, -14.98], [-69.37, -14.8], [-69.27, -14.75], [-69.23, -14.57], [-69.17, -14.58], [-69.16, -14.5], [-68.99, -14.38], [-69.01, -14.25], [-68.86, -14.19], [-68.91, -14.04], [-68.98, -13.97], [-69.02, -13.75], [-69.1, -13.67], [-69.02, -13.63], [-68.97, -13.5], [-68.99, -12.89], [-68.88, -12.75], [-68.77, -12.71], [-68.74, -12.67], [-68.79, -12.62], [-68.69, -12.49], [-68.63, -12.49], [-68.58, -12.41], [-68.48, -12.42], [-68.39, -12.24], [-68.25, -12.15], [-68.22, -12.02], [-68.01, -11.97], [-67.97, -11.9], [-66.93, -12.38], [-66.95, -12.67], [-67.05, -13.02], [-67.12, -13.04], [-67.4, -13.4], [-67.36, -13.57], [-67.49, -13.77], [-67.54, -14.0], [-67.5, -14.26], [-67.57, -14.33], [-67.49, -14.51], [-67.54, -14.6], [-67.43, -14.75], [-67.42, -14.97], [-67.28, -15.02], [-67.12, -15.29], [-67.11, -15.4], [-66.78, -15.7], [-66.93, -15.84], [-66.95, -16.06], [-66.8, -16.28], [-66.82, -16.48], [-66.76, -16.74], [-66.93, -16.84], [-67.02, -17.05], [-66.9, -17.16], [-66.84, -17.47], [-66.99, -17.55], [-67.12, -17.4], [-67.3, -17.45], [-67.75, -17.73], [-67.73, -17.81], [-67.77, -17.86], [-68.14, -17.66], [-68.45, -17.65], [-68.87, -17.97], [-69.08, -18.04], [-69.29, -17.98]]]}}, {"type": "Feature", "properties": {"name": "Auckland", "iso": "NZL", "count": 1}, "geometry": {"type": "MultiPolygon", "coordinates": [[[[175.169, -36.741], [175.215, -36.758], [175.182, -36.775], [175.183, -36.825], [175.012, -36.803], [175.018, -36.761], [175.106, -36.782], [175.169, -36.741]]], [[[174.853, -36.392], [174.896, -36.402], [174.906, -36.449], [174.845, -36.449], [174.853, -36.392]]], [[[175.135, -36.176], [175.155, -36.214], [175.1, -36.228], [175.081, -36.206], [175.135, -36.176]]], [[[175.502, -36.241], [175.566, -36.31], [175.523, -36.352], [175.506, -36.309], [175.467, -36.32], [175.456, -36.276], [175.334, -36.224], [175.327, -36.2], [175.37, -36.22], [175.379, -36.165], [175.334, -36.132], [175.388, -36.118], [175.375, -36.066], [175.42, -36.072], [175.463, -36.118], [175.446, -36.137], [175.531, -36.176], [175.502, -36.241]]], [[[174.673, -37.294], [174.558, -37.063], [174.667, -37.07], [174.654, -37.097], [174.74, -37.244], [174.736, -37.179], [174.805, -37.166], [174.717, -37.153], [174.856, -37.078], [174.946, -37.113], [174.937, -37.066], [174.851, -37.04], [174.826, -36.994], [174.786, -37.008], [174.833, -36.943], [174.768, -36.934], [174.667, -36.944], [174.612, -37.018], [174.58, -37.001], [174.5, -37.032], [174.408, -36.761], [174.218, -36.545], [174.182, -36.453], [174.21, -36.426], [174.203, -36.481], [174.257, -36.447], [174.356, -36.549], [174.339, -36.57], [174.39, -36.583], [174.353, -36.597], [174.36, -36.631], [174.401, -36.646], [174.401, -36.618], [174.431, -36.666], [174.491, -36.577], [174.47, -36.583], [174.45, -36.515], [174.47, -36.44], [174.441, -36.407], [174.466, -36.373], [174.428, -36.358], [174.331, -36.393], [174.271, -36.338], [174.395, -36.323], [174.656, -36.133], [174.824, -36.277], [174.806, -36.335], [174.881, -36.351], [174.751, -36.354], [174.779, -36.487], [174.717, -36.412], [174.735, -36.456], [174.71, -36.481], [174.744, -36.501], [174.71, -36.529], [174.723, -36.594], [174.857, -36.611], [174.782, -36.646], [174.723, -36.631], [174.819, -36.824], [174.744, -36.817], [174.704, -36.758], [174.621, -36.796], [174.683, -36.803], [174.649, -36.826], [174.68, -36.907], [174.751, -36.845], [174.876, -36.851], [174.891, -36.958], [174.935, -36.837], [174.963, -36.934], [175.024, -36.92], [175.004, -36.879], [175.059, -36.878], [175.092, -36.907], [175.093, -36.97], [175.231, -36.939], [175.326, -37.009], [175.183, -37.04], [175.16, -37.16], [175.098, -37.189], [174.673, -37.294]]]]}}, {"type": "Feature", "properties": {"name": "Buenos Aires", "iso": "ARG", "count": 1}, "geometry": {"type": "MultiPolygon", "coordinates": [[[[-56.74, -36.32], [-56.69, -36.93], [-57.49, -37.83], [-57.56, -38.12], [-58.16, -38.43], [-59.8, -38.84], [-61.14, -39.0], [-61.84, -38.98], [-62.38, -38.8], [-62.27, -38.95], [-62.33, -39.25], [-62.02, -39.36], [-62.28, -39.31], [-62.06, -39.45], [-62.11, -39.82], [-62.31, -39.81], [-62.36, -40.19], [-62.49, -40.31], [-62.26, -40.55], [-62.33, -40.67], [-62.18, -40.63], [-62.34, -40.87], [-62.75, -41.04], [-63.12, -40.75], [-63.39, -40.71], [-63.34, -34.38], [-61.71, -34.38], [-60.91, -33.56], [-60.48, -33.62], [-60.29, -33.26], [-59.64, -33.67], [-59.27, -33.72], [-58.64, -34.05], [-58.4, -34.03], [-58.38, -34.19], [-58.57, -34.29], [-58.45, -34.37], [-58.54, -34.71], [-58.44, -34.77], [-58.32, -34.66], [-57.87, -34.83], [-57.25, -35.25], [-57.13, -35.44], [-57.35, -35.73], [-57.37, -35.99], [-56.94, -36.38], [-56.74, -36.32]]]]}}, {"type": "Feature", "properties": {"name": "Luxembourg", "iso": "BEL", "count": 1}, "geometry": {"type": "Polygon", "coordinates": [[[5.192, 49.683], [4.968, 49.797], [4.985, 49.851], [5.119, 49.925], [4.972, 50.031], [5.05, 50.064], [5.066, 50.125], [5.093, 50.092], [5.262, 50.11], [5.242, 50.136], [5.28, 50.159], [5.206, 50.22], [5.393, 50.288], [5.383, 50.319], [5.34, 50.312], [5.394, 50.338], [5.412, 50.43], [5.721, 50.358], [5.704, 50.322], [5.748, 50.3], [5.721, 50.263], [5.874, 50.272], [5.845, 50.285], [5.858, 50.348], [6.013, 50.312], [6.023, 50.151], [5.962, 50.166], [5.872, 50.097], [5.803, 50.002], [5.813, 49.978], [5.715, 49.882], [5.758, 49.858], [5.732, 49.86], [5.728, 49.8], [5.85, 49.714], [5.846, 49.667], [5.885, 49.644], [5.837, 49.561], [5.456, 49.499], [5.402, 49.602], [5.298, 49.613], [5.299, 49.662], [5.259, 49.691], [5.192, 49.683]]]}}, {"type": "Feature", "properties": {"name": "Indiana", "iso": "USA", "count": 1}, "geometry": {"type": "Polygon", "coordinates": [[[-86.34, 38.18], [-86.39, 38.19], [-86.34, 38.14], [-86.41, 38.11], [-86.46, 38.13], [-86.52, 37.93], [-86.65, 37.85], [-86.83, 37.99], [-87.04, 37.91], [-87.11, 37.78], [-87.39, 37.93], [-87.6, 37.97], [-87.59, 37.86], [-87.65, 37.83], [-87.68, 37.9], [-87.9, 37.92], [-87.96, 37.78], [-88.09, 37.82], [-88.03, 37.84], [-88.1, 37.9], [-88.03, 37.91], [-88.08, 37.92], [-88.02, 37.98], [-88.04, 38.05], [-87.96, 38.1], [-88.02, 38.1], [-87.93, 38.16], [-87.99, 38.23], [-87.93, 38.3], [-87.85, 38.29], [-87.51, 38.74], [-87.53, 38.96], [-87.67, 39.15], [-87.59, 39.21], [-87.63, 39.31], [-87.54, 39.35], [-87.53, 41.72], [-87.39, 41.63], [-87.23, 41.63], [-86.83, 41.77], [-84.79, 41.76], [-84.81, 39.1], [-84.89, 39.05], [-84.83, 38.98], [-84.88, 38.91], [-84.79, 38.88], [-84.82, 38.79], [-85.16, 38.7], [-85.45, 38.72], [-85.43, 38.54], [-85.61, 38.45], [-85.68, 38.3], [-85.84, 38.28], [-85.93, 38.03], [-86.05, 37.97], [-86.28, 38.06], [-86.34, 38.18]]]}}, {"type": "Feature", "properties": {"name": "Bern", "iso": "CHE", "count": 1}, "geometry": {"type": "MultiPolygon", "coordinates": [[[[8.45, 46.77], [8.45, 46.69], [8.4, 46.69], [8.41, 46.66], [8.35, 46.58], [8.27, 46.54], [8.18, 46.52], [8.0, 46.56], [7.97, 46.52], [7.72, 46.42], [7.62, 46.44], [7.51, 46.38], [7.33, 46.35], [7.31, 46.37], [7.23, 46.33], [7.2, 46.44], [7.25, 46.51], [7.24, 46.56], [7.32, 46.59], [7.33, 46.65], [7.38, 46.66], [7.38, 46.69], [7.3, 46.75], [7.31, 46.86], [7.36, 46.86], [7.36, 46.89], [7.21, 46.91], [7.23, 47.0], [7.02, 46.99], [7.09, 47.06], [7.09, 47.09], [7.04, 47.12], [6.88, 47.09], [6.89, 47.13], [6.85, 47.17], [6.9, 47.16], [7.07, 47.24], [7.15, 47.25], [7.17, 47.3], [7.56, 47.32], [7.35, 47.21], [7.4, 47.16], [7.48, 47.19], [7.49, 47.16], [7.37, 47.12], [7.45, 47.08], [7.55, 47.16], [7.68, 47.18], [7.58, 47.28], [7.69, 47.29], [7.73, 47.26], [7.82, 47.27], [7.88, 47.17], [7.87, 47.05], [7.95, 47.0], [7.93, 46.95], [7.88, 46.92], [7.87, 46.85], [7.98, 46.78], [8.45, 46.77]], [[7.22, 46.94], [7.24, 46.94], [7.24, 46.94], [7.22, 46.94]]], [[[7.54, 47.33], [7.57, 47.32], [7.54, 47.32], [7.54, 47.33]]]]}}, {"type": "Feature", "properties": {"name": "Florida", "iso": "USA", "count": 1}, "geometry": {"type": "MultiPolygon", "coordinates": [[[[-81.32, 29.83], [-80.76, 28.74], [-80.85, 28.79], [-80.75, 28.4], [-80.19, 27.19], [-80.22, 27.22], [-80.33, 27.25], [-80.22, 27.2], [-80.09, 26.97], [-80.08, 26.33], [-80.13, 25.98], [-80.42, 25.19], [-81.12, 25.13], [-81.18, 25.27], [-81.14, 25.32], [-81.01, 25.21], [-80.92, 25.25], [-81.14, 25.4], [-81.26, 25.8], [-81.72, 25.92], [-81.86, 26.44], [-81.97, 26.52], [-81.77, 26.71], [-82.02, 26.52], [-82.1, 26.92], [-81.99, 26.96], [-81.98, 27.03], [-82.15, 26.94], [-82.28, 27.02], [-82.15, 26.79], [-82.29, 26.85], [-82.57, 27.27], [-82.57, 27.39], [-82.69, 27.47], [-82.64, 27.5], [-82.68, 27.52], [-82.49, 27.48], [-82.51, 27.51], [-82.43, 27.52], [-82.64, 27.54], [-82.57, 27.55], [-82.63, 27.56], [-82.4, 27.79], [-82.4, 27.91], [-82.46, 27.94], [-82.51, 27.83], [-82.54, 27.94], [-82.7, 28.05], [-82.7, 27.98], [-82.64, 27.97], [-82.73, 27.94], [-82.56, 27.88], [-82.68, 27.71], [-82.79, 27.83], [-82.74, 27.69], [-82.84, 27.85], [-82.64, 28.69], [-82.68, 28.81], [-82.64, 28.88], [-82.8, 29.16], [-83.04, 29.18], [-83.14, 29.3], [-83.11, 29.33], [-83.38, 29.52], [-83.4, 29.67], [-83.55, 29.74], [-83.65, 29.91], [-83.97, 30.08], [-84.23, 30.11], [-84.35, 30.07], [-84.36, 29.98], [-84.44, 29.99], [-84.35, 29.91], [-84.46, 29.93], [-84.86, 29.75], [-85.36, 29.68], [-85.41, 29.78], [-85.41, 29.86], [-85.36, 29.69], [-85.31, 29.7], [-85.3, 29.81], [-85.63, 30.09], [-85.47, 30.02], [-85.4, 30.06], [-85.71, 30.18], [-85.57, 30.31], [-85.85, 30.28], [-85.73, 30.13], [-85.99, 30.27], [-86.51, 30.41], [-86.11, 30.39], [-86.22, 30.49], [-86.45, 30.5], [-86.61, 30.42], [-86.79, 30.42], [-87.19, 30.36], [-86.93, 30.46], [-87.01, 30.51], [-86.99, 30.59], [-87.07, 30.45], [-87.17, 30.56], [-87.16, 30.47], [-87.27, 30.36], [-87.42, 30.32], [-87.35, 30.43], [-87.45, 30.53], [-87.4, 30.67], [-87.62, 30.85], [-87.6, 31.0], [-85.0, 31.0], [-84.86, 30.71], [-82.22, 30.57], [-82.16, 30.36], [-82.04, 30.38], [-82.02, 30.79], [-81.9, 30.83], [-81.53, 30.72], [-81.32, 29.83]]], [[[-80.73, 28.78], [-80.58, 28.59], [-80.53, 28.46], [-80.59, 28.41], [-80.6, 28.6], [-80.78, 28.62], [-80.75, 28.74], [-80.64, 28.66], [-80.73, 28.78]]]]}}, {"type": "Feature", "properties": {"name": "Ohio", "iso": "USA", "count": 1}, "geometry": {"type": "Polygon", "coordinates": [[[-83.27, 38.61], [-83.53, 38.7], [-83.68, 38.62], [-83.86, 38.74], [-84.18, 38.79], [-84.44, 39.11], [-84.81, 39.1], [-84.79, 41.7], [-83.48, 41.73], [-82.78, 41.51], [-83.07, 41.46], [-82.55, 41.39], [-82.02, 41.52], [-81.74, 41.49], [-81.36, 41.72], [-80.52, 41.99], [-80.52, 40.64], [-80.67, 40.58], [-80.6, 40.48], [-80.6, 40.31], [-80.76, 39.92], [-80.81, 39.92], [-80.88, 39.62], [-81.24, 39.39], [-81.38, 39.35], [-81.47, 39.41], [-81.57, 39.27], [-81.69, 39.26], [-81.75, 39.09], [-81.82, 39.07], [-81.76, 38.93], [-81.82, 38.95], [-81.89, 38.87], [-81.93, 38.98], [-82.04, 39.01], [-82.22, 38.78], [-82.18, 38.6], [-82.29, 38.58], [-82.33, 38.44], [-82.58, 38.4], [-82.7, 38.54], [-82.85, 38.6], [-82.89, 38.74], [-83.27, 38.61]]]}}, {"type": "Feature", "properties": {"name": "Texas", "iso": "USA", "count": 1}, "geometry": {"type": "MultiPolygon", "coordinates": [[[[-106.0, 31.39], [-106.21, 31.48], [-106.38, 31.73], [-106.61, 31.82], [-106.65, 31.98], [-103.06, 32.0], [-103.03, 36.49], [-100.01, 36.49], [-100.0, 34.56], [-99.93, 34.58], [-99.69, 34.38], [-99.55, 34.42], [-99.41, 34.37], [-99.36, 34.45], [-99.21, 34.33], [-99.18, 34.21], [-98.78, 34.13], [-98.63, 34.16], [-98.45, 34.05], [-98.35, 34.14], [-98.12, 34.15], [-98.09, 34.01], [-97.98, 34.0], [-97.96, 33.88], [-97.85, 33.86], [-97.67, 33.99], [-97.58, 33.9], [-97.46, 33.9], [-97.41, 33.82], [-97.21, 33.91], [-97.15, 33.73], [-97.09, 33.73], [-97.08, 33.85], [-97.01, 33.85], [-96.93, 33.96], [-96.86, 33.86], [-96.75, 33.83], [-96.67, 33.91], [-96.58, 33.9], [-96.6, 33.84], [-96.32, 33.7], [-96.28, 33.77], [-96.17, 33.77], [-96.17, 33.83], [-95.94, 33.89], [-95.77, 33.85], [-95.61, 33.94], [-95.54, 33.89], [-95.33, 33.87], [-95.23, 33.96], [-94.67, 33.67], [-94.44, 33.64], [-94.37, 33.55], [-94.24, 33.59], [-94.04, 33.56], [-94.04, 31.99], [-93.83, 31.8], [-93.79, 31.71], [-93.83, 31.59], [-93.71, 31.52], [-93.75, 31.49], [-93.64, 31.37], [-93.68, 31.31], [-93.59, 31.18], [-93.53, 31.19], [-93.56, 31.1], [-93.51, 31.04], [-93.57, 31.01], [-93.55, 30.83], [-93.74, 30.55], [-93.71, 30.06], [-93.86, 29.99], [-93.95, 29.82], [-93.84, 29.67], [-94.07, 29.67], [-94.77, 29.36], [-94.68, 29.48], [-94.47, 29.56], [-94.79, 29.54], [-94.71, 29.66], [-94.74, 29.79], [-94.89, 29.67], [-95.09, 29.8], [-94.99, 29.68], [-95.01, 29.56], [-94.91, 29.5], [-94.98, 29.46], [-94.82, 29.37], [-94.89, 29.39], [-94.9, 29.31], [-95.16, 29.2], [-95.25, 28.98], [-95.68, 28.73], [-95.94, 28.69], [-95.96, 28.62], [-95.7, 28.72], [-96.21, 28.49], [-95.99, 28.6], [-95.98, 28.65], [-96.24, 28.57], [-96.16, 28.61], [-96.24, 28.64], [-96.15, 28.76], [-96.36, 28.62], [-96.39, 28.73], [-96.45, 28.76], [-96.38, 28.61], [-96.49, 28.56], [-96.45, 28.66], [-96.48, 28.6], [-96.57, 28.64], [-96.57, 28.81], [-96.58, 28.69], [-96.66, 28.68], [-96.61, 28.56], [-96.49, 28.51], [-96.56, 28.47], [-96.48, 28.5], [-96.39, 28.43], [-96.66, 28.31], [-96.79, 28.48], [-96.82, 28.45], [-96.78, 28.39], [-96.85, 28.41], [-96.78, 28.23], [-96.95, 28.11], [-96.91, 28.26], [-96.98, 28.12], [-97.02, 28.2], [-97.26, 28.07], [-97.27, 28.03], [-97.03, 28.11], [-97.02, 28.02], [-97.2, 27.81], [-97.28, 27.87], [-97.52, 27.86], [-97.39, 27.83], [-97.32, 27.71], [-97.4, 27.63], [-97.25, 27.69], [-97.41, 27.32], [-97.5, 27.32], [-97.51, 27.44], [-97.6, 27.3], [-97.75, 27.42], [-97.68, 27.29], [-97.79, 27.29], [-97.55, 27.23], [-97.43, 27.27], [-97.5, 27.08], [-97.48, 27.0], [-97.57, 26.98], [-97.56, 26.85], [-97.43, 26.52], [-97.47, 26.48], [-97.25, 26.07], [-97.28, 26.0], [-97.17, 25.95], [-97.31, 25.97], [-97.43, 25.85], [-97.65, 26.02], [-98.2, 26.06], [-98.45, 26.22], [-98.68, 26.24], [-98.82, 26.38], [-99.11, 26.42], [-99.29, 26.86], [-99.46, 27.03], [-99.44, 27.2], [-99.54, 27.32], [-99.49, 27.49], [-99.55, 27.61], [-99.88, 27.8], [-99.94, 27.99], [-100.3, 28.28], [-100.35, 28.5], [-100.65, 28.92], [-100.67, 29.08], [-101.07, 29.47], [-101.26, 29.53], [-101.25, 29.63], [-101.31, 29.58], [-101.4, 29.77], [-102.06, 29.78], [-102.32, 29.88], [-102.39, 29.77], [-102.68, 29.74], [-102.88, 29.35], [-102.87, 29.23], [-102.99, 29.19], [-103.15, 28.98], [-103.28, 28.99], [-103.53, 29.15], [-103.72, 29.19], [-103.77, 29.28], [-104.05, 29.33], [-104.54, 29.68], [-104.67, 29.91], [-104.7, 30.24], [-104.85, 30.39], [-104.89, 30.57], [-105.21, 30.81], [-105.39, 30.85], [-106.0, 31.39]]], [[[-96.4, 28.35], [-96.83, 28.07], [-96.8, 28.17], [-96.42, 28.39], [-96.4, 28.35]]], [[[-97.05, 27.83], [-97.38, 27.21], [-97.26, 27.65], [-97.2, 27.61], [-97.11, 27.82], [-97.05, 27.83]]], [[[-97.18, 26.07], [-97.4, 26.92], [-97.4, 27.11], [-97.38, 27.2], [-97.36, 26.8], [-97.23, 26.42], [-97.18, 26.07]]]]}}]}