{"type": "FeatureCollection", "properties": {"note": "Release authorisations per state, counted from projects.json. United States only, because that is the only jurisdiction whose register publishes release locations at state level. Regenerated whenever the release harvester runs."}, "features": [{"type": "Feature", "properties": {"name": "Washington \u2014 1 release authorisation", "count": 1}, "geometry": {"type": "MultiPolygon", "coordinates": [[[[-122.22, 48.01], [-122.46, 48.23], [-122.45, 48.13], [-122.36, 48.06], [-122.51, 48.13], [-122.54, 48.21], [-122.38, 48.29], [-122.56, 48.41], [-122.67, 48.41], [-122.7, 48.49], [-122.47, 48.46], [-122.51, 48.56], [-122.43, 48.6], [-122.52, 48.76], [-122.7, 48.8], [-122.82, 48.95], [-122.74, 48.96], [-122.77, 49.0], [-117.03, 49.0], [-117.06, 46.35], [-116.93, 46.17], [-116.99, 46.08], [-116.92, 46.0], [-118.98, 46.0], [-119.14, 45.93], [-119.59, 45.91], [-120.21, 45.72], [-120.44, 45.69], [-120.62, 45.74], [-121.17, 45.6], [-121.32, 45.7], [-121.81, 45.7], [-122.3, 45.54], [-122.76, 45.65], [-122.81, 45.94], [-122.9, 46.08], [-123.05, 46.16], [-123.3, 46.14], [-123.47, 46.28], [-123.89, 46.24], [-123.99, 46.31], [-124.08, 46.27], [-124.07, 46.64], [-124.01, 46.38], [-123.84, 46.4], [-123.94, 46.48], [-123.89, 46.51], [-123.96, 46.62], [-123.84, 46.72], [-124.09, 46.73], [-124.14, 46.9], [-124.03, 46.82], [-124.05, 46.89], [-123.81, 46.96], [-124.11, 47.04], [-124.16, 46.93], [-124.37, 47.64], [-124.48, 47.81], [-124.61, 47.87], [-124.73, 48.15], [-124.72, 48.38], [-123.99, 48.16], [-123.4, 48.11], [-123.12, 48.15], [-122.92, 48.07], [-122.77, 48.14], [-122.8, 48.09], [-122.65, 47.86], [-122.86, 47.83], [-122.9, 47.67], [-123.11, 47.46], [-123.15, 47.35], [-123.01, 47.35], [-122.83, 47.44], [-123.11, 47.37], [-122.92, 47.61], [-122.75, 47.66], [-122.61, 47.85], [-122.61, 47.94], [-122.53, 47.91], [-122.47, 47.75], [-122.62, 47.7], [-122.5, 47.51], [-122.59, 47.33], [-122.55, 47.28], [-122.7, 47.29], [-122.63, 47.4], [-122.74, 47.34], [-122.76, 47.16], [-122.83, 47.23], [-122.8, 47.36], [-123.12, 47.21], [-123.08, 47.09], [-122.92, 47.05], [-122.79, 47.13], [-122.7, 47.1], [-122.59, 47.18], [-122.53, 47.29], [-122.55, 47.32], [-122.42, 47.26], [-122.44, 47.3], [-122.33, 47.34], [-122.41, 47.66], [-122.3, 47.95], [-122.22, 48.01]]], [[[-122.77, 48.22], [-122.67, 48.4], [-122.53, 48.32], [-122.73, 48.23], [-122.61, 48.21], [-122.55, 48.08], [-122.38, 48.03], [-122.39, 47.9], [-122.61, 48.03], [-122.77, 48.22]]]]}}]}